ONEWEB-0560             
1 55145U 23004F   25043.97582653 -.00000018  00000+0 -78793-4 0  9996
2 55145  87.9051  72.7876 0002262  96.2174 263.9216 13.18685688105234
ONEWEB-0565             
1 55146U 23004G   25043.59012023  .00000099  00000+0  21939-3 0  9990
2 55146  87.9047  72.9311 0002338  82.7381 277.4017 13.18685873105178
ONEWEB-0567             
1 55147U 23004H   25043.58376957 -.00001919  00000+0 -49005-2 0  9996
2 55147  87.9045  72.8868 0002538  87.1510 272.9912 13.18690443105171
ONEWEB-0569             
1 55148U 23004J   25043.94702324  .00000295  00000+0  77413-3 0  9997
2 55148  87.8881  57.4643 0002903  90.9822 269.1640 13.13470582105950
ONEWEB-0570             
1 55149U 23004K   25043.57113860  .00000021  00000+0  21293-4 0  9991
2 55149  87.9052  72.8913 0001853  71.9519 288.1815 13.18686413105163
ONEWEB-0571             
1 55150U 23004L   25043.79244841  .00000167  00000+0  38962-3 0  9992
2 55150  87.9051  72.8553 0002853  79.2549 280.8904 13.18686411105200
ONEWEB-0572             
1 55151U 23004M   25043.65509877  .00000064  00000+0  13167-3 0  9997
2 55151  87.9053 103.3983 0001962  92.7067 267.4289 13.17650357103018
ONEWEB-0573             
1 55152U 23004N   25043.78612646  .00000109  00000+0  24481-3 0  9992
2 55152  87.9046  72.8661 0002472  74.1597 285.9807 13.18687631105191
